[{"OBJECT_NAME":"ONEWEB-0158","OBJECT_ID":"2021-025N","EPOCH":"2026-03-05T16:17:58.278336","MEAN_MOTION":13.13469808,"ECCENTRICITY":0.0001526,"INCLINATION":87.905,"RA_OF_ASC_NODE":340.7994,"ARG_OF_PERICENTER":88.4216,"MEAN_ANOMALY":271.7088,"EPHEMERIS_TYPE":0,"CLASSIFICATION_TYPE":"U","NORAD_CAT_ID":48054,"ELEMENT_SET_NO":999,"REV_AT_EPOCH":24004,"BSTAR":0.0011234,"MEAN_MOTION_DOT":4.23e-6,"MEAN_MOTION_DDOT":0},{"OBJECT_NAME":"ONEWEB-0157","OBJECT_ID":"2021-025P","EPOCH":"2026-03-05T16:54:31.658976","MEAN_MOTION":13.13469265,"ECCENTRICITY":0.0002152,"INCLINATION":87.9048,"RA_OF_ASC_NODE":340.7995,"ARG_OF_PERICENTER":76.9194,"MEAN_ANOMALY":283.2175,"EPHEMERIS_TYPE":0,"CLASSIFICATION_TYPE":"U","NORAD_CAT_ID":48055,"ELEMENT_SET_NO":999,"REV_AT_EPOCH":23998,"BSTAR":-0.00046032,"MEAN_MOTION_DOT":-1.55e-6,"MEAN_MOTION_DDOT":0},{"OBJECT_NAME":"ONEWEB-0162","OBJECT_ID":"2021-025Q","EPOCH":"2026-03-05T18:09:53.994816","MEAN_MOTION":13.13470769,"ECCENTRICITY":0.0001748,"INCLINATION":87.9045,"RA_OF_ASC_NODE":340.7932,"ARG_OF_PERICENTER":73.2736,"MEAN_ANOMALY":286.8584,"EPHEMERIS_TYPE":0,"CLASSIFICATION_TYPE":"U","NORAD_CAT_ID":48056,"ELEMENT_SET_NO":999,"REV_AT_EPOCH":23996,"BSTAR":0.00075306,"MEAN_MOTION_DOT":2.88e-6,"MEAN_MOTION_DDOT":0},{"OBJECT_NAME":"ONEWEB-0155","OBJECT_ID":"2021-025R","EPOCH":"2026-03-05T18:19:51.219264","MEAN_MOTION":13.13468381,"ECCENTRICITY":0.000191,"INCLINATION":87.9039,"RA_OF_ASC_NODE":340.7916,"ARG_OF_PERICENTER":82.6222,"MEAN_ANOMALY":277.5124,"EPHEMERIS_TYPE":0,"CLASSIFICATION_TYPE":"U","NORAD_CAT_ID":48057,"ELEMENT_SET_NO":999,"REV_AT_EPOCH":24010,"BSTAR":0.00027752,"MEAN_MOTION_DOT":1.14e-6,"MEAN_MOTION_DDOT":0},{"OBJECT_NAME":"ONEWEB-0149","OBJECT_ID":"2021-025S","EPOCH":"2026-03-05T17:01:50.232288","MEAN_MOTION":13.13469137,"ECCENTRICITY":0.0001709,"INCLINATION":87.9045,"RA_OF_ASC_NODE":340.7989,"ARG_OF_PERICENTER":72.4541,"MEAN_ANOMALY":287.6775,"EPHEMERIS_TYPE":0,"CLASSIFICATION_TYPE":"U","NORAD_CAT_ID":48058,"ELEMENT_SET_NO":999,"REV_AT_EPOCH":23990,"BSTAR":-0.00065804,"MEAN_MOTION_DOT":-2.28e-6,"MEAN_MOTION_DDOT":0},{"OBJECT_NAME":"ONEWEB-0148","OBJECT_ID":"2021-025T","EPOCH":"2026-03-05T16:08:13.117920","MEAN_MOTION":13.13471004,"ECCENTRICITY":0.0001967,"INCLINATION":87.9035,"RA_OF_ASC_NODE":340.8208,"ARG_OF_PERICENTER":59.7184,"MEAN_ANOMALY":300.4139,"EPHEMERIS_TYPE":0,"CLASSIFICATION_TYPE":"U","NORAD_CAT_ID":48059,"ELEMENT_SET_NO":999,"REV_AT_EPOCH":24002,"BSTAR":0.00093412,"MEAN_MOTION_DOT":3.54e-6,"MEAN_MOTION_DDOT":0},{"OBJECT_NAME":"ONEWEB-0160","OBJECT_ID":"2021-025U","EPOCH":"2026-03-05T18:22:17.077152","MEAN_MOTION":13.13468454,"ECCENTRICITY":0.0001019,"INCLINATION":87.9035,"RA_OF_ASC_NODE":340.799,"ARG_OF_PERICENTER":96.0382,"MEAN_ANOMALY":264.0864,"EPHEMERIS_TYPE":0,"CLASSIFICATION_TYPE":"U","NORAD_CAT_ID":48060,"ELEMENT_SET_NO":999,"REV_AT_EPOCH":23998,"BSTAR":0.00029752,"MEAN_MOTION_DOT":1.21e-6,"MEAN_MOTION_DDOT":0},{"OBJECT_NAME":"ONEWEB-0163","OBJECT_ID":"2021-025V","EPOCH":"2026-03-05T05:12:29.038464","MEAN_MOTION":13.13469712,"ECCENTRICITY":0.000198,"INCLINATION":87.9032,"RA_OF_ASC_NODE":340.9007,"ARG_OF_PERICENTER":80.1935,"MEAN_ANOMALY":279.9418,"EPHEMERIS_TYPE":0,"CLASSIFICATION_TYPE":"U","NORAD_CAT_ID":48061,"ELEMENT_SET_NO":999,"REV_AT_EPOCH":24003,"BSTAR":0.0011745,"MEAN_MOTION_DOT":4.42e-6,"MEAN_MOTION_DDOT":0},{"OBJECT_NAME":"ONEWEB-0159","OBJECT_ID":"2021-025W","EPOCH":"2026-03-05T12:19:04.093248","MEAN_MOTION":13.1346969,"ECCENTRICITY":0.0001942,"INCLINATION":87.9049,"RA_OF_ASC_NODE":340.8269,"ARG_OF_PERICENTER":73.998,"MEAN_ANOMALY":286.1363,"EPHEMERIS_TYPE":0,"CLASSIFICATION_TYPE":"U","NORAD_CAT_ID":48062,"ELEMENT_SET_NO":999,"REV_AT_EPOCH":23999,"BSTAR":0.00084469,"MEAN_MOTION_DOT":3.21e-6,"MEAN_MOTION_DDOT":0},{"OBJECT_NAME":"ONEWEB-0164","OBJECT_ID":"2021-025X","EPOCH":"2026-03-05T17:21:20.292192","MEAN_MOTION":13.13470016,"ECCENTRICITY":0.0001721,"INCLINATION":87.905,"RA_OF_ASC_NODE":340.792,"ARG_OF_PERICENTER":80.8497,"MEAN_ANOMALY":279.2827,"EPHEMERIS_TYPE":0,"CLASSIFICATION_TYPE":"U","NORAD_CAT_ID":48063,"ELEMENT_SET_NO":999,"REV_AT_EPOCH":24000,"BSTAR":-0.00043903,"MEAN_MOTION_DOT":-1.48e-6,"MEAN_MOTION_DDOT":0},{"OBJECT_NAME":"ONEWEB-0167","OBJECT_ID":"2021-025Y","EPOCH":"2026-03-05T12:32:30.562080","MEAN_MOTION":13.13470159,"ECCENTRICITY":0.000227,"INCLINATION":87.9039,"RA_OF_ASC_NODE":340.8512,"ARG_OF_PERICENTER":91.7171,"MEAN_ANOMALY":268.4218,"EPHEMERIS_TYPE":0,"CLASSIFICATION_TYPE":"U","NORAD_CAT_ID":48064,"ELEMENT_SET_NO":999,"REV_AT_EPOCH":23996,"BSTAR":0.00094878,"MEAN_MOTION_DOT":3.59e-6,"MEAN_MOTION_DDOT":0},{"OBJECT_NAME":"ONEWEB-0166","OBJECT_ID":"2021-025Z","EPOCH":"2026-03-05T11:15:41.166144","MEAN_MOTION":13.13470247,"ECCENTRICITY":0.0001835,"INCLINATION":87.9048,"RA_OF_ASC_NODE":340.8244,"ARG_OF_PERICENTER":73.1685,"MEAN_ANOMALY":286.9645,"EPHEMERIS_TYPE":0,"CLASSIFICATION_TYPE":"U","NORAD_CAT_ID":48065,"ELEMENT_SET_NO":999,"REV_AT_EPOCH":24003,"BSTAR":1.7753e-5,"MEAN_MOTION_DOT":1.9e-7,"MEAN_MOTION_DDOT":0},{"OBJECT_NAME":"ONEWEB-0151","OBJECT_ID":"2021-025AA","EPOCH":"2026-03-05T16:47:13.202304","MEAN_MOTION":13.13468254,"ECCENTRICITY":0.0001786,"INCLINATION":87.904,"RA_OF_ASC_NODE":340.8045,"ARG_OF_PERICENTER":82.4185,"MEAN_ANOMALY":277.7147,"EPHEMERIS_TYPE":0,"CLASSIFICATION_TYPE":"U","NORAD_CAT_ID":48066,"ELEMENT_SET_NO":999,"REV_AT_EPOCH":24000,"BSTAR":-0.0003408,"MEAN_MOTION_DOT":-1.12e-6,"MEAN_MOTION_DDOT":0},{"OBJECT_NAME":"ONEWEB-0170","OBJECT_ID":"2021-025AB","EPOCH":"2026-03-05T16:59:23.885376","MEAN_MOTION":13.13469646,"ECCENTRICITY":0.0001582,"INCLINATION":87.9039,"RA_OF_ASC_NODE":340.8049,"ARG_OF_PERICENTER":93.7899,"MEAN_ANOMALY":266.3411,"EPHEMERIS_TYPE":0,"CLASSIFICATION_TYPE":"U","NORAD_CAT_ID":48067,"ELEMENT_SET_NO":999,"REV_AT_EPOCH":23996,"BSTAR":-0.00065627,"MEAN_MOTION_DOT":-2.27e-6,"MEAN_MOTION_DDOT":0},{"OBJECT_NAME":"ONEWEB-0168","OBJECT_ID":"2021-025AC","EPOCH":"2026-03-05T16:37:27.894144","MEAN_MOTION":13.13469532,"ECCENTRICITY":0.0001947,"INCLINATION":87.9051,"RA_OF_ASC_NODE":340.7987,"ARG_OF_PERICENTER":75.8002,"MEAN_ANOMALY":284.3343,"EPHEMERIS_TYPE":0,"CLASSIFICATION_TYPE":"U","NORAD_CAT_ID":48068,"ELEMENT_SET_NO":999,"REV_AT_EPOCH":23997,"BSTAR":0.00019447,"MEAN_MOTION_DOT":8.4e-7,"MEAN_MOTION_DDOT":0},{"OBJECT_NAME":"ONEWEB-0173","OBJECT_ID":"2021-025AD","EPOCH":"2026-03-05T16:25:17.179104","MEAN_MOTION":13.13469653,"ECCENTRICITY":0.0002121,"INCLINATION":87.9044,"RA_OF_ASC_NODE":340.8075,"ARG_OF_PERICENTER":80.7875,"MEAN_ANOMALY":279.3494,"EPHEMERIS_TYPE":0,"CLASSIFICATION_TYPE":"U","NORAD_CAT_ID":48069,"ELEMENT_SET_NO":999,"REV_AT_EPOCH":24021,"BSTAR":0.00083639,"MEAN_MOTION_DOT":3.18e-6,"MEAN_MOTION_DDOT":0},{"OBJECT_NAME":"ONEWEB-0171","OBJECT_ID":"2021-025AE","EPOCH":"2026-03-05T17:18:52.922304","MEAN_MOTION":13.13468907,"ECCENTRICITY":0.0001727,"INCLINATION":87.9039,"RA_OF_ASC_NODE":340.8122,"ARG_OF_PERICENTER":81.673,"MEAN_ANOMALY":278.4595,"EPHEMERIS_TYPE":0,"CLASSIFICATION_TYPE":"U","NORAD_CAT_ID":48070,"ELEMENT_SET_NO":999,"REV_AT_EPOCH":24003,"BSTAR":-0.00052839,"MEAN_MOTION_DOT":-1.8e-6,"MEAN_MOTION_DDOT":0},{"OBJECT_NAME":"ONEWEB-0172","OBJECT_ID":"2021-025AF","EPOCH":"2026-03-05T16:49:39.279648","MEAN_MOTION":13.13468815,"ECCENTRICITY":0.0001885,"INCLINATION":87.9037,"RA_OF_ASC_NODE":340.8044,"ARG_OF_PERICENTER":82.1276,"MEAN_ANOMALY":278.0067,"EPHEMERIS_TYPE":0,"CLASSIFICATION_TYPE":"U","NORAD_CAT_ID":48071,"ELEMENT_SET_NO":999,"REV_AT_EPOCH":24092,"BSTAR":-0.0005585,"MEAN_MOTION_DOT":-1.91e-6,"MEAN_MOTION_DDOT":0},{"OBJECT_NAME":"ONEWEB-0174","OBJECT_ID":"2021-025AG","EPOCH":"2026-03-05T16:22:50.585952","MEAN_MOTION":13.1346926,"ECCENTRICITY":0.0001816,"INCLINATION":87.9037,"RA_OF_ASC_NODE":340.8088,"ARG_OF_PERICENTER":74.6812,"MEAN_ANOMALY":285.4517,"EPHEMERIS_TYPE":0,"CLASSIFICATION_TYPE":"U","NORAD_CAT_ID":48072,"ELEMENT_SET_NO":999,"REV_AT_EPOCH":24024,"BSTAR":0.00092322,"MEAN_MOTION_DOT":3.5e-6,"MEAN_MOTION_DDOT":0},{"OBJECT_NAME":"ONEWEB-0175","OBJECT_ID":"2021-025AH","EPOCH":"2026-03-05T17:06:42.947712","MEAN_MOTION":13.13469646,"ECCENTRICITY":0.0001792,"INCLINATION":87.9046,"RA_OF_ASC_NODE":340.7777,"ARG_OF_PERICENTER":88.213,"MEAN_ANOMALY":271.9204,"EPHEMERIS_TYPE":0,"CLASSIFICATION_TYPE":"U","NORAD_CAT_ID":48073,"ELEMENT_SET_NO":999,"REV_AT_EPOCH":23990,"BSTAR":-0.00066881,"MEAN_MOTION_DOT":-2.31e-6,"MEAN_MOTION_DDOT":0},{"OBJECT_NAME":"ONEWEB-0177","OBJECT_ID":"2021-025AJ","EPOCH":"2026-03-05T17:23:46.469760","MEAN_MOTION":13.13470112,"ECCENTRICITY":0.0001944,"INCLINATION":87.9047,"RA_OF_ASC_NODE":340.797,"ARG_OF_PERICENTER":74.4608,"MEAN_ANOMALY":285.6735,"EPHEMERIS_TYPE":0,"CLASSIFICATION_TYPE":"U","NORAD_CAT_ID":48074,"ELEMENT_SET_NO":999,"REV_AT_EPOCH":24009,"BSTAR":-0.0004026,"MEAN_MOTION_DOT":-1.34e-6,"MEAN_MOTION_DDOT":0},{"OBJECT_NAME":"ONEWEB-0178","OBJECT_ID":"2021-025AK","EPOCH":"2026-03-05T12:21:42.815232","MEAN_MOTION":13.13470708,"ECCENTRICITY":0.0001913,"INCLINATION":87.9029,"RA_OF_ASC_NODE":340.8664,"ARG_OF_PERICENTER":85.8224,"MEAN_ANOMALY":274.3124,"EPHEMERIS_TYPE":0,"CLASSIFICATION_TYPE":"U","NORAD_CAT_ID":48075,"ELEMENT_SET_NO":999,"REV_AT_EPOCH":24011,"BSTAR":0.0010145,"MEAN_MOTION_DOT":3.83e-6,"MEAN_MOTION_DDOT":0},{"OBJECT_NAME":"ONEWEB-0108","OBJECT_ID":"2021-025AL","EPOCH":"2026-03-05T16:52:05.009664","MEAN_MOTION":13.13469097,"ECCENTRICITY":0.0001571,"INCLINATION":87.9046,"RA_OF_ASC_NODE":340.7895,"ARG_OF_PERICENTER":72.7145,"MEAN_ANOMALY":287.4156,"EPHEMERIS_TYPE":0,"CLASSIFICATION_TYPE":"U","NORAD_CAT_ID":48076,"ELEMENT_SET_NO":999,"REV_AT_EPOCH":24006,"BSTAR":-0.00041877,"MEAN_MOTION_DOT":-1.4e-6,"MEAN_MOTION_DDOT":0},{"OBJECT_NAME":"ONEWEB-0169","OBJECT_ID":"2021-025AM","EPOCH":"2026-03-05T17:38:24.029376","MEAN_MOTION":13.13469253,"ECCENTRICITY":0.0001586,"INCLINATION":87.9037,"RA_OF_ASC_NODE":340.7996,"ARG_OF_PERICENTER":73.0211,"MEAN_ANOMALY":287.1092,"EPHEMERIS_TYPE":0,"CLASSIFICATION_TYPE":"U","NORAD_CAT_ID":48077,"ELEMENT_SET_NO":999,"REV_AT_EPOCH":23872,"BSTAR":0.00011976,"MEAN_MOTION_DOT":5.6e-7,"MEAN_MOTION_DDOT":0}]
